[{"OBJECT_NAME":"STARLINK-30056","OBJECT_ID":"2023-119W","EPOCH":"2026-03-09T22:00:01.999584","MEAN_MOTION":15.18690363,"ECCENTRICITY":0.00012443,"INCLINATION":43.0005,"RA_OF_ASC_NODE":79.7341,"ARG_OF_PERICENTER":294.9593,"MEAN_ANOMALY":198.4792,"EPHEMERIS_TYPE":0,"CLASSIFICATION_TYPE":"U","NORAD_CAT_ID":57622,"ELEMENT_SET_NO":999,"REV_AT_EPOCH":573,"BSTAR":0.045658013,"MEAN_MOTION_DOT":0.01040204,"MEAN_MOTION_DDOT":0},{"OBJECT_NAME":"SPACEMOBILE-003 DEB","OBJECT_ID":"2024-163H","EPOCH":"2026-03-09T06:41:58.685280","MEAN_MOTION":15.36819258,"ECCENTRICITY":0.00083408,"INCLINATION":52.9732,"RA_OF_ASC_NODE":23.5908,"ARG_OF_PERICENTER":178.9597,"MEAN_ANOMALY":181.1423,"EPHEMERIS_TYPE":0,"CLASSIFICATION_TYPE":"U","NORAD_CAT_ID":62371,"ELEMENT_SET_NO":999,"REV_AT_EPOCH":7650,"BSTAR":0.00066898372,"MEAN_MOTION_DOT":0.00024141,"MEAN_MOTION_DDOT":0}]
